{
    "links": {
        "self": "http://www.neowsapp.com/rest/v1/neo/3698557?api_key=iIulBulltgU6a56xZRHN4H3l9WmuAYTsLGpBGhQ2"
    },
    "id": "3698557",
    "neo_reference_id": "3698557",
    "name": "(2014 JQ79)",
    "designation": "2014 JQ79",
    "nasa_jpl_url": "http://ssd.jpl.nasa.gov/sbdb.cgi?sstr=3698557",
    "absolute_magnitude_h": 26.1,
    "estimated_diameter": {
        "kilometers": {
            "estimated_diameter_min": 0.0160160338,
            "estimated_diameter_max": 0.0358129403
        },
        "meters": {
            "estimated_diameter_min": 16.0160337979,
            "estimated_diameter_max": 35.8129403019
        },
        "miles": {
            "estimated_diameter_min": 0.0099518989,
            "estimated_diameter_max": 0.0222531225
        },
        "feet": {
            "estimated_diameter_min": 52.5460443254,
            "estimated_diameter_max": 117.4965270602
        }
    },
    "is_potentially_hazardous_asteroid": false,
    "close_approach_data": [
        {
            "close_approach_date": "2014-04-18",
            "close_approach_date_full": "2014-Apr-18 22:24",
            "epoch_date_close_approach": 1397859840000,
            "relative_velocity": {
                "kilometers_per_second": "7.3588113238",
                "kilometers_per_hour": "26491.7207658545",
                "miles_per_hour": "16460.9250503167"
            },
            "miss_distance": {
                "astronomical": "0.0382788143",
                "lunar": "14.8904587627",
                "kilometers": "5726429.085405541",
                "miles": "3558238.0359808258"
            },
            "orbiting_body": "Earth"
        }
    ],
    "orbital_data": {
        "orbit_id": "4",
        "orbit_determination_date": "2019-07-18 07:26:53",
        "first_observation_date": "2014-04-28",
        "last_observation_date": "2014-05-03",
        "data_arc_in_days": 5,
        "observations_used": 44,
        "orbit_uncertainty": "8",
        "minimum_orbit_intersection": ".029193",
        "jupiter_tisserand_invariant": "4.307",
        "epoch_osculation": "2456777.5",
        "eccentricity": ".3724691098040019",
        "semi_major_axis": "1.581609724682725",
        "inclination": "6.471446637385245",
        "ascending_node_longitude": "34.47378277467918",
        "orbital_period": "726.5197365613245",
        "perihelion_distance": ".9925089584727979",
        "perihelion_argument": "142.1806768200736",
        "aphelion_distance": "2.170710490892652",
        "perihelion_time": "2456739.514235481791",
        "mean_anomaly": "18.82244148146547",
        "mean_motion": ".4955130354805067",
        "equinox": "J2000",
        "orbit_class": {
            "orbit_class_type": "APO",
            "orbit_class_description": "Near-Earth asteroid orbits which cross the Earth’s orbit similar to that of 1862 Apollo",
            "orbit_class_range": "a (semi-major axis) > 1.0 AU; q (perihelion) < 1.017 AU"
        }
    },
    "is_sentry_object": false
}